[{"OBJECT_NAME":"STARLINK-30582","OBJECT_ID":"2023-158J","EPOCH":"2026-03-09T22:43:59.076192","MEAN_MOTION":15.27356294,"ECCENTRICITY":0.00011668,"INCLINATION":43.0027,"RA_OF_ASC_NODE":25.2286,"ARG_OF_PERICENTER":260.4378,"MEAN_ANOMALY":99.6342,"EPHEMERIS_TYPE":0,"CLASSIFICATION_TYPE":"U","NORAD_CAT_ID":58059,"ELEMENT_SET_NO":999,"REV_AT_EPOCH":13361,"BSTAR":0.0033060368,"MEAN_MOTION_DOT":0.00091219,"MEAN_MOTION_DDOT":0},{"OBJECT_NAME":"NUSAT-44 (MARIA MITCHELL)","OBJECT_ID":"2024-043AA","EPOCH":"2026-03-09T22:12:18.524160","MEAN_MOTION":15.29764305,"ECCENTRICITY":0.0007331,"INCLINATION":97.5299,"RA_OF_ASC_NODE":207.7691,"ARG_OF_PERICENTER":214.9017,"MEAN_ANOMALY":145.1743,"EPHEMERIS_TYPE":0,"CLASSIFICATION_TYPE":"U","NORAD_CAT_ID":59122,"ELEMENT_SET_NO":999,"REV_AT_EPOCH":11209,"BSTAR":0.00061063193,"MEAN_MOTION_DOT":0.00017562,"MEAN_MOTION_DDOT":0}]
